borough_name,website,site_name,os_addressbase_uprn,borough_code,address1,address2,address3,ward_2018_name,ward_2018_code,easting,longitude,latitude,northing,Creative Enterprise Zones,Cultural Venue Type,runtime
Hammersmith and Fulha,https://www.spr.ac.uk/,Society for Psychical Research,34037603,E09000013,1 Vernon Mews ,West Kensington,,Avonmore and Brook Green,E05000252,524116.84815820836,-0.21030917426154164,51.49391402689298,178845.36763117422,Hammersmith and Fulham,Archives,11/27/2022
Hammersmith and Fulha,https://www.vam.ac.uk/info/archive-of-art-and-design,V&A Archive of Art and Design,34062985,E09000013,Blythe House 23 Blythe Road,,,Avonmore and Brook Green,E05000252,523864.9092002048,-0.21384172436352888,51.496413877812444,179117.31327073695,Hammersmith and Fulham,Archives,11/27/2022
Hammersmith and Fulha,https://www.vam.ac.uk/collections/theatre-performance,V&A Department of Theatre and Performance,34062985,E09000013,23 Blythe Road,,,Avonmore and Brook Green,E05000252,523864.9092002048,-0.21384172436352888,51.496413877812444,179117.31327073695,Hammersmith and Fulham,Archives,11/27/2022
Hammersmith and Fulha,,Harrods Archive,34142299,E09000013,68-72 Hammersmith Road,,,Avonmore and Brook Green,E05000252,523884.9006060949,-0.2136265321280765,51.49454912264182,178910.35260050406,Hammersmith and Fulham,Archives,11/27/2022
Hammersmith and Fulham,www.acava.org,Faroe Rd,34034840,E09000013,23 - 29 Faroe Rd,,,Avonmore and Brook Green,E05000252,523767.9355039309,-0.21515404976425173,51.498592089894295,179357.26679393445,Hammersmith and Fulham,Artists workspaces,11/27/2022
Hammersmith and Fulham,,"Vue Shepherd's Bush



",000034141269,E09000013,Westfield London Shopping Centre,Ariel Way,"
",Shepherd's Bush Green,E05000263,523531.0001221001,-0.21982985509256242,51.50708847547983,180240.00012210011,Hammersmith and Fulham,Cinemas,11/27/2022
Hammersmith and Fulham,,William Church TRA Hall ,34119379,E09000013,60 Lime Grove,Hammersmith And Fulham,NA,Shepherd's Bush Green,E05000263,523087.0001221001,-0.22640851693476857,51.502457592664086,179714.00012210011,Hammersmith and Fulham,Community centres,11/27/2022
Hammersmith and Fulham,,Kathy Dolan Centre ,34135006,E09000013,78 White City Close,Hammersmith And Fulham,NA,College Park and Old Oak,E05000253,523135.0001221001,-0.22540606228878346,51.51045560415566,180605.00012210011,Hammersmith and Fulham,Community centres,11/27/2022
Hammersmith and Fulham,,Springvale Estate Residents Hall,34141098,E09000013,Blythe Road,Hammersmith And Fulham,NA,Avonmore and Brook Green,E05000252,524074.0001221001,-0.21240927765122625,51.49674100800208,179102.00012210011,Hammersmith and Fulham,Community centres,11/27/2022
Hammersmith and Fulham,www.creightonhouse.co.uk,West Kensington Community Hall,34070106,E09000013,80 Lillie Road,Hammersmith And Fulham,NA,North End,E05000258,525003.0001221001,-0.19946574986831445,51.48552591579122,177877.00012210011,Hammersmith and Fulham,Community centres,11/27/2022
Hammersmith and Fulham,,White City Community Centre,34128630,E09000013,India Way,Hammersmith And Fulham,NA,Wormholt and White City,E05000265,522713.0001221001,-0.2314589482305221,51.51121255659474,180679.00012210011,Hammersmith and Fulham,Community centres,11/27/2022
Hammersmith and Fulham,,Gibbs Green Hall,34141100,E09000013,Gibbs Green,Hammersmith And Fulham,NA,North End,E05000258,524784.0001221001,-0.202450967638396,51.489834647454636,178351.00012210011,Hammersmith and Fulham,Community centres,11/27/2022
Hammersmith and Fulham,http://www.upg.org.uk,Masbro Centre,34034846,E09000013,87 Masbro' Road,Hammersmith And Fulham,NA,Addison,E05000250,523921.0001221001,-0.21449829549308605,51.49969571977298,179427.00012210011,Hammersmith and Fulham,Community centres,11/27/2022
Hammersmith and Fulham,lyttonresidents.blogspot.com,Lytton Estate Community Hall,34128657,E09000013,North End Crescent,Hammersmith And Fulham,NA,Avonmore and Brook Green,E05000252,524552.0001221001,-0.20567652288927524,51.49280694286175,178676.00012210011,Hammersmith and Fulham,Community centres,11/27/2022
Kensington and Chelsea,,Nevern Place,217058060,E09000020,Notting Hill Housing Association,Flat 1a,1 Nevern Place,Earl's Court,E05009395,525418.0001221001,-0.19320702967159792,51.492624455557234,178677.00012210011,Hammersmith and Fulham,Community centres,11/27/2022
Hammersmith and Fulham,https://www.shgroup.org.uk/media/233106/lisgar-terrace.pdf,Lisgar Terrace Community Centre,34162985,E09000013,Community Hall,Samuel Lewis Trust Dwellings,Lisgar Terrace,Avonmore and Brook Green,E05000252,524440.0001221001,-0.20725778248935264,51.493631551577266,178765.00012210011,Hammersmith and Fulham,Community centres,11/27/2022
Hammersmith and Fulham,http://ugli.lovelyinside.com,Ugli Campus,34152043,E09000013,Ugli Campus,Ugli Campus,56 Wood Lane,College Park and Old Oak,E05000253,523355.0001221001,-0.22222941337211394,51.51060534769143,180627.00012210011,Hammersmith and Fulham,Creative co-working desk space,11/27/2022
Hammersmith and Fulham,http://www.huckletree.com/,Huckletree,34160930,E09000013,Huckletree,White City Place,191 Wood Lane,College Park and Old Oak,E05000253,523067.62011719495,-0.22628347105605998,51.512868422211035,180871.8101195991,Hammersmith and Fulham,Creative co-working desk space,11/27/2022
Hammersmith and Fulham,https://www.westlondonschoolofdance.co.uk,West London School of Dance,34039599,E09000013,25 Bulwer Street,,,Shepherd's Bush Green,E05000263,523153.0827025457,-0.22374653497969876,51.505484972953944,180109.11526379368,Hammersmith and Fulham,Dance performance venues,11/27/2022
Hammersmith and Fulham,https://www.westlondonschoolofdance.co.uk/studio-hire,Village Hall Dance Studio,34039610,E09000013,58 Bulwer Street,,,Shepherd's Bush Green,E05000263,523125.0892205448,-0.22413998062796733,51.505742722754725,180137.10947550938,Hammersmith and Fulham,Dance rehearsal studios,11/27/2022
Hammersmith and Fulham,https://www.westlondonschoolofdance.co.uk,West London School of Dance,34039599,E09000013,25 Bulwer Street,,,Shepherd's Bush Green,E05000263,523153.0827025457,-0.22374653497969876,51.505484972953944,180109.11526379368,Hammersmith and Fulham,Dance rehearsal studios,11/27/2022
Hammersmith and Fulham,http://www.coroflot.com/francescazagari,Francesca Zagari,34026245,E09000013,32C Aynhoe Road,,,Avonmore and Brook Green,E05000252,523623.9617548083,-0.21731837081751876,51.496295911534396,179098.31368095253,Hammersmith and Fulham,Fashion and design,11/27/2022
Hammersmith and Fulham,,Jack Cube Ltd,34030736,E09000013,200 Uxbridge Road,,,Shepherd's Bush Green,E05000263,523216.0001221001,-0.22445145107051603,51.50498212197091,179998.00012210011,Hammersmith and Fulham,Jewellery design,11/27/2022
Hammersmith and Fulham,,Rock and Raw Limited,34160940,E09000013,Huckletree West 191 Wood Lane,,,College Park and Old Oak,E05000253,523068.0001221001,-0.22627793070100954,51.51287004719545,180872.00012210011,Hammersmith and Fulham,Jewellery design,11/27/2022
Hammersmith and Fulham,,Avonmore Library and Neighbourhood Centre,34058302,E09000013,North End Crescent,,,Avonmore and Brook Green,E05000252,524563.0001221001,-0.20554708384805745,51.49206749449068,178594.00012210011,Hammersmith and Fulham,Libraries,11/27/2022
Hammersmith & Fulham,https://www.imperial.ac.uk/white-city-campus/community/the-invention-rooms/,Imperial College London,34126299,E09000013,The Invention Rooms,68 Wood Lane,White City,College Park and Old Oak,E05000253,523033.1263146115,-0.22516299115712804,51.513527825546575,181000.9464764084,Hammersmith and Fulham,Makerspaces,11/27/2022
Hammersmith And Fulham,,Rocket Entertainment,0,E09000013,1 Blythe Road Hammersmith W14 0hg,,,Avonmore And Brook Green,E05000252,524166.000122197,-0.21113164724988323,51.49551639548391,178968.00012159348,Hammersmith and Fulham,Music (office based businesses),11/27/2022
Hammersmith And Fulham,www.godlikeandelectric.com,Godlike & Electric Records Ltd,34033006,E09000013,6 Netherwood Road,Hammersmith And Fulham,,Addison,E05000250,523547.000122197,-0.21989228663062974,51.499570877592035,179404.00012159348,Hammersmith and Fulham,Music (office based businesses),11/27/2022
Hammersmith And Fulham,,I E Music Ltd,34039375,E09000013,111 Frithville Gardens,Hammersmith And Fulham,,Shepherd's Bush Green,E05000263,523090.000122197,-0.22613526423212876,51.508380153503026,180373.00012169778,Hammersmith and Fulham,Music (office based businesses),11/27/2022
Hammersmith And Fulham,,Rds Studios Ltd,34019456,E09000013,12 Hetley Road,Hammersmith And Fulham,,Shepherd's Bush Green,E05000263,522663.000122197,-0.23241368474574609,51.50516536176649,180005.00012169778,Hammersmith and Fulham,Music recording studios,11/27/2022
Hammersmith And Fulham,www.bushstudios.co.uk,Bush Studios,34156724,E09000013,151 Railway Arches,Macfarlane Road,Hammersmith And Fulham,Shepherd's Bush Green,E05000263,523214.000122197,-0.22440442611728506,51.506932992291944,180215.00012169778,Hammersmith and Fulham,Music rehearsal studios,11/27/2022
Hammersmith And Fulham,www.nellsjazzandblues.com,Nell's Jazz & Blues,34151679,E09000013,3 North End Crescent,Hammersmith And Fulham,,Avonmore And Brook Green,E05000252,524555.000122197,-0.20567568358079566,51.49172770922717,178556.00012159348,Hammersmith and Fulham,Music venues (all),11/27/2022
Hammersmith And Fulham,www.academymusicgroup.com/o2shepherdsbushempire,O2 Shepherd's Bush Empire,34030760,E09000013,Shepherds Bush Green Hammersmith And Fulham,,,Shepherd's Bush Green,E05000263,523329.000122197,-0.22290334716034743,51.502917153890465,179771.00012159348,Hammersmith and Fulham,Music venues (all),11/27/2022
Hammersmith And Fulham,,Belushi's Shepherd's Bush,34032634,E09000013,13-15 Shepherds Bush Green,Hammersmith And Fulham,,Addison,E05000250,523768.000122197,-0.21655107984799274,51.503585162267115,179856.00012159348,Hammersmith and Fulham,Music venues (all),11/27/2022
Hammersmith And Fulham,www.bushtheatre.co.uk,The Bush Theatre,34032421,E09000013,7 Uxbridge Road,Hammersmith And Fulham,,Shepherd's Bush Green,E05000263,523223.000122197,-0.22436810528494042,51.50453118656436,179948.00012169778,Hammersmith and Fulham,Music venues (all),11/27/2022
Hammersmith And Fulham,www.bushhallmusic.co.uk,Bush Hall,34016974,E09000013,Bush Hall 310,Uxbridge Road,Hammersmith And Fulham,Shepherd's Bush Green,E05000263,522822.000122197,-0.23009056245212597,51.50598470107384,180100.00012169778,Hammersmith and Fulham,Music venues (all),11/27/2022
Hammersmith And Fulham,www.nellsjazzandblues.com,Nell's Jazz & Blues,34151679,E09000013,3 North End Crescent,Hammersmith And Fulham,,Avonmore And Brook Green,E05000252,524555.000122197,-0.20567568358079566,51.49172770922717,178556.00012159348,Hammersmith and Fulham,Music venues (grassroots),11/27/2022
Kensington and Chelsea,,Bolton,,E09000020,326 Earls Court Road,Earls Court,London,Earl's Court,E05009395,525703.0001221001,-0.1892338421557587,51.489271533947374,178311.00012210011,Hammersmith and Fulham,Pubs,11/27/2022
Hammersmith and Fulham,,Prince,,E09000013,14 Lillie Road,Fulham,London,North End,E05000258,525233.0001221001,-0.19611097437946273,51.48658055334904,178000.00012210011,Hammersmith and Fulham,Pubs,11/27/2022
Hammersmith and Fulham,,Pavilion,,E09000013,"Pavilion Parade, Wood Lane",Shepherds Bush,London,College Park and Old Oak,E05000253,523065.0001221001,-0.2261192987419795,51.51806586307468,181450.00012210011,Hammersmith and Fulham,Pubs,11/27/2022
Hammersmith and Fulham,,All Star Lanes,,E09000013,"Westfield Shopping Centre, Ariel Way",Shepherds Bush,,Shepherd's Bush Green,E05000263,523458.0001221001,-0.22077308270201765,51.509881771478675,180549.00012210011,Hammersmith and Fulham,Pubs,11/27/2022
Hammersmith and Fulham,,Real Greek,,E09000013,"Southern Terrace, Westfield Shopping Centre",Shepherds Bush,,Shepherd's Bush Green,E05000263,523542.0001221001,-0.21967247073077079,51.50705910584125,180237.00012210011,Hammersmith and Fulham,Pubs,11/27/2022
Hammersmith and Fulham,,Caffe Concerto,,E09000013,"Unit K2004, The Balcony, Westfield Shopping Centre",Shepherds Bush,,Shepherd's Bush Green,E05000263,523374.0001221001,-0.22207471839069495,51.507545224354686,180287.00012210011,Hammersmith and Fulham,Pubs,11/27/2022
Hammersmith and Fulham,,Puttshack,,E09000013,"Westfield London, Ariel Way",Shepherds Bush,,Shepherd's Bush Green,E05000263,523504.0001221001,-0.22012135401080968,51.50959308432709,180518.00012210011,Hammersmith and Fulham,Pubs,11/27/2022
Hammersmith and Fulham,,Ichiba,,E09000013,"Unit 0220, Relay Square, Westfield London",Shepherds Bush,,Shepherd's Bush Green,E05000263,523504.0001221001,-0.22012135401080968,51.50959308432709,180518.00012210011,Hammersmith and Fulham,Pubs,11/27/2022
Hammersmith and Fulham,,Maple,,E09000013,Westfield Square,Shepherds Bush,,Shepherd's Bush Green,E05000263,523504.0001221001,-0.22012135401080968,51.50959308432709,180518.00012210011,Hammersmith and Fulham,Pubs,11/27/2022
Hammersmith and Fulham,,Green,,E09000013,172-174 Uxbridge Road,Shepherds Bush,London,Shepherd's Bush Green,E05000263,523252.0001221001,-0.2239340059785914,51.50494730578906,179995.00012210011,Hammersmith and Fulham,Pubs,11/27/2022
Hammersmith and Fulham,,Queens Tavern,,E09000013,121 South Africa Road,Shepherds Bush,London,Shepherd's Bush Green,E05000263,522872.0001221001,-0.2292250831938218,51.50972190786692,180517.00012210011,Hammersmith and Fulham,Pubs,11/27/2022
Hammersmith and Fulham,,Bull,,E09000013,"Unit 1033, Southern Terrace, Westfield Shopping Centre",Shepherds Bush,London,Shepherd's Bush Green,E05000263,523338.0001221001,-0.22253516621519875,51.50904511960023,180453.00012210011,Hammersmith and Fulham,Pubs,11/27/2022
Hammersmith and Fulham,,Feast Bar & Kitchen,,E09000013,201 Wood Lane,Shepherds Bush,London,College Park and Old Oak,E05000253,523068.0001221001,-0.22627793070100954,51.51287004719545,180872.00012210011,Hammersmith and Fulham,Pubs,11/27/2022
Hammersmith and Fulham,,W12 Studios,,E09000013,195 Wood Lane,Shepherds Bush,,College Park and Old Oak,E05000253,523068.0001221001,-0.22627793070100954,51.51287004719545,180872.00012210011,Hammersmith and Fulham,Pubs,11/27/2022
Hammersmith and Fulham,,Defector's Weld,,E09000013,170 Uxbridge Road,Shepherds Bush,London,Shepherd's Bush Green,E05000263,523420.0001221001,-0.22152802353258644,51.504560096086884,179956.00012210011,Hammersmith and Fulham,Pubs,11/27/2022
Hammersmith and Fulham,,White Horse,,E09000013,31 Uxbridge Road,Shepherds Bush,London,Shepherd's Bush Green,E05000263,523108.0001221001,-0.22600483880138944,51.50505959230566,180004.00012210011,Hammersmith and Fulham,Pubs,11/27/2022
Hammersmith and Fulham,,Bush Theatre Library Bar,,E09000013,7 Uxbridge Rd,Shepherds Bush,London,Shepherd's Bush Green,E05000263,523257.0001221001,-0.2238787711835008,51.50451478269699,179947.00012210011,Hammersmith and Fulham,Pubs,11/27/2022
Hammersmith and Fulham,,Belushi's,,E09000013,15 Shepherds Bush Green,Shepherds Bush,London,Addison,E05000250,523671.0001221001,-0.21795755350313084,51.503363720405915,179829.00012210011,Hammersmith and Fulham,Pubs,11/27/2022
Hammersmith and Fulham,,Central Bar,,E09000013,"West 12 Centre, Shepherds Bush Green",Shepherds Bush,London,Addison,E05000250,523671.0001221001,-0.21795755350313084,51.503363720405915,179829.00012210011,Hammersmith and Fulham,Pubs,11/27/2022
Hammersmith and Fulham,,Beaconsfield,,E09000013,24 Blythe Road,West Kensington,London,Avonmore and Brook Green,E05000252,524136.0001221001,-0.21151929830576685,51.49665548913383,179094.00012210011,Hammersmith and Fulham,Pubs,11/27/2022
Hammersmith and Fulham,,Jameson,,E09000013,43 Blythe Road,West Kensington,London,Avonmore and Brook Green,E05000252,523920.0001221001,-0.21463354058983466,51.49660401895803,179083.00012210011,Hammersmith and Fulham,Pubs,11/27/2022
Hammersmith and Fulham,,Bird in Hand,,E09000013,88 Masbro Road,West Kensington,London,Addison,E05000250,523951.0001221001,-0.21407681195080264,51.49941949664517,179397.00012210011,Hammersmith and Fulham,Pubs,11/27/2022
Hammersmith and Fulham,,Havelock Tavern,,E09000013,57 Masbro Road,West Kensington,London,Addison,E05000250,523933.0001221001,-0.2143514852672621,51.49902796621254,179353.00012210011,Hammersmith and Fulham,Pubs,11/27/2022
Kensington and Chelsea,,Society Bar,,E09000020,"Olympia Hilton Hotel, 380 Kensington High Street",West Kensington,London,Holland,E05009397,524506.0001221001,-0.20621535320313175,51.495962913249464,179026.00012210011,Hammersmith and Fulham,Pubs,11/27/2022
Hammersmith and Fulham,,Cumberland Arms,,E09000013,29 North End Road,West Kensington,London,Avonmore and Brook Green,E05000252,524371.0001221001,-0.2082530690049504,51.49360179690107,178760.00012210011,Hammersmith and Fulham,Pubs,11/27/2022
Hammersmith and Fulham,,Hand & Flower,,E09000013,1 Hammersmith Road,West Kensington,London,Avonmore and Brook Green,E05000252,524466.0001221001,-0.20681709167765822,51.495315591392405,178953.00012210011,Hammersmith and Fulham,Pubs,11/27/2022
Hammersmith and Fulham,,Famous 3 Kings,,E09000013,173 North End Road,West Kensington,London,North End,E05000258,524635.0001221001,-0.20460999370730684,51.489516979831514,178312.00012210011,Hammersmith and Fulham,Pubs,11/27/2022
Hammersmith and Fulham,,Richmond,,E09000013,55 Shepherds Bush Road,Hammersmith,London,Addison,E05000250,523529.0001221001,-0.22012278423164247,51.50031184181718,179486.00012210011,Hammersmith and Fulham,Pubs,11/27/2022
Hammersmith and Fulham,,Brook Green Hotel,,E09000013,170 Shepherds Bush Road,Hammersmith,London,Addison,E05000250,523458.0001221001,-0.2212628612748633,51.49730733154285,179150.00012210011,Hammersmith and Fulham,Pubs,11/27/2022
Hammersmith and Fulham,http://www.coroflot.com/francescazagari,Francesca Zagari,34026245,E09000013,32C  Aynhoe Road,,,Avonmore and Brook Green,E05000252,523845.0001221001,-0.21574617941162144,51.4957845599324,178990.00012210011,Hammersmith and Fulham,Set and exhibition building,11/27/2022
Hammersmith and Fulham,https://www.bushtheatre.co.uk/,Bush Theatre,34032421,E09000013,7 Uxbridge Road,,,Shepherd's Bush Green,E05000263,523036.1068153646,-0.2254503448233205,51.50502515595086,180055.12322814687,Hammersmith and Fulham,Theatre rehearsal studio,11/27/2022
Hammersmith and Fulham,www.trinityfocus.org,Holy Trinity W6,34134012,E09000013,Brook Green,,,Avonmore and Brook Green,E05000252,523570.971079956,-0.2181211037531841,51.495291941168766,178985.3342695739,Hammersmith and Fulham,Theatre rehearsal studio,11/27/2022
Hammersmith and Fulham,https://academymusicgroup.com/o2shepherdsbushempire/,Shepherds Bush Empire,34030760,E09000013,Shepherd's Bush Green,NA,NA,Shepherd's Bush Green,E05000263,522996.00901298743,-0.22607049220849804,51.503937464738584,179933.14873582538,Hammersmith and Fulham,Theatres,11/27/2022
Hammersmith and Fulham,https://www.bushtheatre.co.uk/,Bush Theatre,34032421,E09000013,7 Uxbridge Rd, Shepherd's Bush,NA,Shepherd's Bush Green,E05000263,522924.063329444,-0.22704543078226302,51.5055342950238,180109.04657961597,Hammersmith and Fulham,Theatres,11/27/2022
Kensington and Chelsea,http://www.finboroughtheatre.co.uk/,Finborough Theatre,217112560,E09000020,118 Finborough Road, Kensington,NA,Redcliffe,E05009402,525469.1430335672,-0.1911104669773156,51.48666972967394,178072.7069762465,Hammersmith and Fulham,Theatres,11/27/2022
