borough_name,website,site_name,os_addressbase_uprn,borough_code,address1,address2,address3,ward_2018_name,ward_2018_code,easting,longitude,latitude,northing,Creative Enterprise Zones,Cultural Venue Type,runtime
Lewisham,https://www.iriedancetheatre.org/,IRIE! dance theatre,10093394257,E09000023,Moonshot Centre ,Fordham Park ,Angus Street,New Cross,E05000449,536310.1283936375,-0.0353019716561354,51.477856808382086,177371.67910076567,SHAPES Lewisham (Deptford and New Cross),Archives,11/27/2022
Lewisham,https://www.gold.ac.uk/make/,MAKE Resource Centre Collections (formerly the Women's Art Library),100023000000,E09000023,London University: Goldsmiths College The Library Lewisham Way ,,New Cross,Brockley,E05000439,536316.117416653,-0.03537519941363767,51.474143961065394,176958.75377573958,SHAPES Lewisham (Deptford and New Cross),Archives,11/27/2022
Lewisham,https://www.gold.ac.uk/library/collections/special-collections/,London University: Goldsmiths Library: Special Collections and Archives,100023000000,E09000023,Goldsmiths University of London ,New Cross,,Brockley,E05000439,536316.117416653,-0.03537519941363767,51.474143961065394,176958.75377573958,SHAPES Lewisham (Deptford and New Cross),Archives,11/27/2022
Lewisham,aptstudios.org,,100000000000,E09000023,Harold Wharf,6 Creekside,,New Cross,E05000449,537272.8960373048,-0.02149665324236014,51.47640150768818,177235.68415437313,SHAPES Lewisham (Deptford and New Cross),Artists workspaces,11/27/2022
Greenwich,www.acava.org,Norman House,10010217066,E09000011,Norman House,125 Greenwich High Rd,,Greenwich West,E05000222,537571.8244742319,-0.017176848793958206,51.476724195396926,177279.67129321204,SHAPES Lewisham (Deptford and New Cross),Artists workspaces,11/27/2022
Lewisham,www.arthub.org.uk,Art Hub Deptford,10093391623,E09000023,5-9 Creekside,,,New Cross,E05000449,537320.8872893605,-0.020774388991739758,51.47711773617666,177316.6679427282,SHAPES Lewisham (Deptford and New Cross),Artists workspaces,11/27/2022
Lewisham,www.cockpitarts.com,,200000000000,E09000023,Cockpit Arts Deptford,18 - 22 Creekside,,New Cross,E05000449,537324.8920639949,-0.020651416477554294,51.47862646579653,177484.63614035427,SHAPES Lewisham (Deptford and New Cross),Artists workspaces,11/27/2022
Lewisham,www.theoldpolicestation.org/,The Old Police Station,100000000000,E09000023,114 Amersham Vale,,,New Cross,E05000449,536544.0790680903,-0.03186368673615841,51.47944481587567,177554.64035335404,SHAPES Lewisham (Deptford and New Cross),Artists workspaces,11/27/2022
Lewisham,www.acme.org.uk,Childers Street,200001000000,E09000023,165 Childers Street,Deptford,,Evelyn,E05000443,536331.1358855653,-0.034814615239131104,51.48215624226716,177850.59186877165,SHAPES Lewisham (Deptford and New Cross),Artists workspaces,11/27/2022
Lewisham,www.artistic-spaces.co.uk,"Unit 10, Elizabeth Trading Estate",10093390732,E09000023,Juno Way,South Bermondsey,,New Cross,E05000449,535644.2910910617,-0.0446817498714416,51.48279792331752,177903.59934650053,SHAPES Lewisham (Deptford and New Cross),Artists workspaces,11/27/2022
Lewisham,ceramicsstudio.coop,JUNO ENTERPRISE CENTRE,100023569547,E09000023,"Unit 14 and 17, Block C",Juno Way,,New Cross,E05000449,535539.316908641,-0.04615415170099939,51.48373076482892,178004.583708896,SHAPES Lewisham (Deptford and New Cross),Artists workspaces,11/27/2022
Greenwich,www.acava.org,Borthwick St,10010244675,E09000011,5 Borthwick St,,,Greenwich West,E05000222,537019.3362546212,-0.02477897598328046,51.484969015206936,178182.05292630137,SHAPES Lewisham (Deptford and New Cross),Artists workspaces,11/27/2022
Lewisham,https://www.thealbany.org.uk/,The Albany ,100023569348,E09000023,Douglas Way,,,New Cross,E05000449,536857.9999720026,-0.027409246524924713,51.47787709615518,177388.66395419365,SHAPES Lewisham (Deptford and New Cross),Arts centres,11/27/2022
Lewisham,,Curzon Goldsmiths,100023238053,E09000023,Goldsmiths University of London,Richard Hoggart Building,"Lewisham Way, New Cross",Brockley,E05000439,536540.0001221001,-0.033785506133114394,51.473627896620656,176850.00012210011,SHAPES Lewisham (Deptford and New Cross),Cinemas,11/27/2022
Lewisham,,Deptford Cinema,100021951303,E09000023,,39 Deptford Broadway,,Brockley,E05000439,537283.0001221001,-0.02307427293373011,51.47387945328054,176898.00012210011,SHAPES Lewisham (Deptford and New Cross),Cinemas,11/27/2022
Lewisham,http://www.bearspace.co.uk/#,Bearspace,100023280386,E09000023,152 Deptford High Street,NA,NA,Evelyn,E05000443,537186.0001221001,-0.024250769000243838,51.47898074962246,177463.00012210011,SHAPES Lewisham (Deptford and New Cross),Commercial galleries,11/27/2022
Lewisham,,Lewington Centre,10023232830,E09000023,9 Eugenia Road,Lewisham,NA,Evelyn,E05000443,535430.0001221001,-0.04911355349718679,51.48903836852962,178535.00012210011,SHAPES Lewisham (Deptford and New Cross),Community centres,11/27/2022
Lewisham,,Leander Hall,100023281185,E09000023,Ship Street,Lewisham,NA,Brockley,E05000439,537225.0001221001,-0.023986258427407956,51.47210507440575,176699.00012210011,SHAPES Lewisham (Deptford and New Cross),Community centres,11/27/2022
Lewisham,https://www.nhhg.org.uk/communities/spaces-for-hire/conrad-court/,Conrad Court,10090786135,E09000023,Conrad Court,1-78 Cary Avenue,London,Evelyn,E05000443,536360.0001221001,-0.03563095015883364,51.49100771352152,178779.00012210011,SHAPES Lewisham (Deptford and New Cross),Community centres,11/27/2022
Lewisham,www.artistic-spaces.co.uk,Artistic Spaces Ltd,10093394512,E09000023,Elizabeth Tower,Unit 13,Elizabeth Tower,,,535881.0001221001,-0.04292267772145467,51.4818841285766,177751.00012210011,SHAPES Lewisham (Deptford and New Cross),Creative workspaces,11/27/2022
Lewisham,www.cockpitarts.com,Cockpit Arts,100023280408,E09000023,Cockpit Arts,Cockpit Arts Deptford,18 - 22 Creekside,,,537549.0001221001,-0.019060092353894366,51.478110700225876,177376.00012210011,SHAPES Lewisham (Deptford and New Cross),Creative workspaces,11/27/2022
Lewisham,,The Artworks,100023281198,E09000023,The Artwork Creekside,3 Creekside,,,,537469.0001221001,-0.020299451831322927,51.4760990500546,177150.00012210011,SHAPES Lewisham (Deptford and New Cross),Creative workspaces,11/27/2022
Lewisham,https://www.secondfloor.co.uk/,Second Floor Studios And Arts,100023569428,E09000023,Second Floor Studios And Arts,Deptford Foreshore,,,,536820.0001221001,-0.029077129224753806,51.48930583827672,178602.00012210011,SHAPES Lewisham (Deptford and New Cross),Creative workspaces,11/27/2022
Lewisham,www.artistic-spaces.co.uk,Artistic Spaces Ltd,100023680112,E09000023,"Unit 10, Elizabeth Trading Estate",Juno Way,South Bermondsey,,,535861.0001221001,-0.04317323082232518,51.48276070047185,177848.00012210011,SHAPES Lewisham (Deptford and New Cross),Creative workspaces,11/27/2022
Lewisham,http://www.thealbany.org.uk,Albany Centre and Theatre,100023280749,E09000023,1A Douglas Way,,,New Cross,E05000449,536857.9999720026,-0.027409246524924713,51.47787709615518,177388.66395419365,SHAPES Lewisham (Deptford and New Cross),Dance performance venues,11/27/2022
Lewisham,http://www.thealbany.org.uk/hireus/36/Room-Hire,The Albany Rehearsal Space,10023234998,E09000023,9 Giffin St,,,New Cross,E05000449,537075.9476716267,-0.02427712296089753,51.47770742399345,177375.6618465557,SHAPES Lewisham (Deptford and New Cross),Dance rehearsal studios,11/27/2022
Lewisham,http://www.thelondontheatre.com,The London Theatre,100023238425,E09000023,443 New Cross Road,,,New Cross,E05000449,536671.0379679154,-0.030190591462119148,51.47582853266741,177155.71046314185,SHAPES Lewisham (Deptford and New Cross),Dance rehearsal studios,11/27/2022
Lewisham,http://www.thealbany.org.uk,Albany Centre and Theatre,100023280749,E09000023,1A Douglas Way,,,New Cross,E05000449,536857.9999720026,-0.027409246524924713,51.47787709615518,177388.66395419365,SHAPES Lewisham (Deptford and New Cross),Dance rehearsal studios,11/27/2022
Lewisham,,"Gitas Portal, M. Mariatu",1.00022E+11,E09000023,15 Comet Street,,,New Cross,E05000449,536913.9810329846,-0.026675560548179024,51.47619206321238,177202.69720853935,SHAPES Lewisham (Deptford and New Cross),Fashion and design,11/27/2022
Lewisham,http://www.owenleather.com,Owen Leather,1.00023E+11,E09000023,Studio 207,Cockpit Arts,18-22 Creekside,New Cross,E05000449,537324.8920639949,-0.020651416477554294,51.47862646579653,177484.63614035427,SHAPES Lewisham (Deptford and New Cross),Fashion and design,11/27/2022
Lewisham,https://cockpitarts.com/designer-makers/debbi-little,Debbi Little,1.00023E+11,E09000023,Studio 212,Cockpit Arts,18-22 Creekside,New Cross,E05000449,537324.8920639949,-0.020651416477554294,51.47862646579653,177484.63614035427,SHAPES Lewisham (Deptford and New Cross),Fashion and design,11/27/2022
Lewisham,https://www.petershams.com,Petershams Millinery Supplies,1.00023E+11,E09000023,3 Creekside,,,New Cross,E05000449,537244.9035117634,-0.021890630213565486,51.47661499527142,177258.68036969035,SHAPES Lewisham (Deptford and New Cross),Fashion and design,11/27/2022
Lewisham,http://www.whelansweaving.com,Whelan Weaving,1.00023E+11,E09000023,Studio 214,Cockpit Arts,18-22 Creekside,New Cross,E05000449,537324.8920639949,-0.020651416477554294,51.47862646579653,177484.63614035427,SHAPES Lewisham (Deptford and New Cross),Fashion and design,11/27/2022
Lewisham,http://oliviajholland.co.uk,Olivia Holland,1.00023E+11,E09000023,Studio 209,Cockpit Arts,18-22 Creekside,New Cross,E05000449,537324.8920639949,-0.020651416477554294,51.47862646579653,177484.63614035427,SHAPES Lewisham (Deptford and New Cross),Fashion and design,11/27/2022
Lewisham,https://stevenharkin.com,Steven Harkin,1.00023E+11,E09000023,Studio 7,Cockpit Arts,18-22 Creekside,New Cross,E05000449,537324.8920639949,-0.020651416477554294,51.47862646579653,177484.63614035427,SHAPES Lewisham (Deptford and New Cross),Fashion and design,11/27/2022
Lewisham,https://www.fronte.co.uk,"Fronte, Jiyun Lapthorn ",1.00023E+11,E09000023,Studio 203,Cockpit Arts,18-22 Creekside,New Cross,E05000449,537324.8920639949,-0.020651416477554294,51.47862646579653,177484.63614035427,SHAPES Lewisham (Deptford and New Cross),Fashion and design,11/27/2022
Lewisham,http://www.tamwalsh.com/,Tamara Walsh,1.00023E+11,E09000023,Studio 109,Cockpit Arts,18-22 Creekside,New Cross,E05000449,537324.8920639949,-0.020651416477554294,51.47862646579653,177484.63614035427,SHAPES Lewisham (Deptford and New Cross),Fashion and design,11/27/2022
Lewisham,http://www.mpcbespokeshoes.com,Mariano Palencia Crespo,1.00023E+11,E09000023,Studio 206,Cockpit Arts,18-22 Creekside,New Cross,E05000449,537324.8920639949,-0.020651416477554294,51.47862646579653,177484.63614035427,SHAPES Lewisham (Deptford and New Cross),Fashion and design,11/27/2022
Lewisham,http://www.phoebeenglish.com/shop-grid/,Pheobe English,1.00023E+11,E09000023,5-9 Creekside,,,New Cross,E05000449,537241.9048617881,-0.02192640847292843,51.47678646429299,177277.67685600952,SHAPES Lewisham (Deptford and New Cross),Fashion and design,11/27/2022
Lewisham,http://www.deco22.co.uk/,Deco22,1.00023E+11,E09000023,Studio 209,Cockpit Arts,18-22 Creekside,New Cross,E05000449,537324.8920639949,-0.020651416477554294,51.47862646579653,177484.63614035427,SHAPES Lewisham (Deptford and New Cross),Fashion and design,11/27/2022
Lewisham,http://rowpinto.com/,Row Pinto ,1.00023E+11,E09000023,Studio 304,Cockpit Arts,18-22 Creekside,New Cross,E05000449,537324.8920639949,-0.020651416477554294,51.47862646579653,177484.63614035427,SHAPES Lewisham (Deptford and New Cross),Fashion and design,11/27/2022
Lewisham,http://www.charlottegrierson.co.uk,Charlotte Grierson,1.00023E+11,E09000023,Studio 306,Cockpit Arts,18-22 Creekside,New Cross,E05000449,537324.8920639949,-0.020651416477554294,51.47862646579653,177484.63614035427,SHAPES Lewisham (Deptford and New Cross),Fashion and design,11/27/2022
Lewisham,http://www.catarinariccabona.com,Catarina Riccabona,1.00023E+11,E09000023,Studio 303,Cockpit Arts,18-22 Creekside,New Cross,E05000449,537324.8920639949,-0.020651416477554294,51.47862646579653,177484.63614035427,SHAPES Lewisham (Deptford and New Cross),Fashion and design,11/27/2022
Lewisham,http://www.emmayeo.com,Emma Yeo,1.00023E+11,E09000023,Cockpit Arts,18-22 Creekside,,New Cross,E05000449,537324.8920639949,-0.020651416477554294,51.47862646579653,177484.63614035427,SHAPES Lewisham (Deptford and New Cross),Fashion and design,11/27/2022
Lewisham,http://www.elizabethashdown.co.uk,Elizabeth Ashdown ,1.00023E+11,E09000023,Studio 213,Cockpit Arts,18-22 Creekside,New Cross,E05000449,537324.8920639949,-0.020651416477554294,51.47862646579653,177484.63614035427,SHAPES Lewisham (Deptford and New Cross),Fashion and design,11/27/2022
Lewisham,http://www.hannahbedford.co.uk,Hannah Bedford Limited,10091837237,E09000023,Studio 210 Cockpit Arts,18 - 22 Creekside,,New Cross,E05000449,537549.0001221001,-0.019060092353894366,51.478110700225876,177376.00012210011,SHAPES Lewisham (Deptford and New Cross),Jewellery design,11/27/2022
Lewisham,,New Cross community library service,100023239028,E09000023,New Cross Road,,,New Cross,E05000449,536307.0001221001,-0.03708193049854492,51.475005216838916,176997.00012210011,SHAPES Lewisham (Deptford and New Cross),Libraries,11/27/2022
Lewisham,,The Library at Deptford Lounge,10023235598,E09000023,Giffin Street,,,New Cross,E05000449,537300.0001221001,-0.02268619191592593,51.47719159863241,177267.00012210011,SHAPES Lewisham (Deptford and New Cross),Libraries,11/27/2022
Lewisham,,Pepys community library service,100023569428,E09000023,Foreshore,,,Evelyn,E05000443,536820.0001221001,-0.029077129224753806,51.48930583827672,178602.00012210011,SHAPES Lewisham (Deptford and New Cross),Libraries,11/27/2022
Lewisham,ceramicsstudio.coop,Ceramics Studio Co-Op,100024000000,E09000023,Ceramics Studio Co-Op,"Unit 14 And 17, Block C",Juno Way,New Cross,E05000449,535579.306327545,-0.045605732505758265,51.4830831239938,177933.59554193652,SHAPES Lewisham (Deptford and New Cross),Makerspaces,11/27/2022
Lewisham,http://www.arthub.org.uk/framing/,Framework Picture Framing LTD,10070773229,E09000023,5-9  Creekside,,,New Cross,E05000449,537466.0001221001,-0.020335232742682056,51.47627053540962,177169.00012210011,SHAPES Lewisham (Deptford and New Cross),Making and manufacturing,11/27/2022
Lewisham,http://www.axionfurniture.co.uk,Axion Furniture Makers,10093391211,E09000023,Unit 12 Elizabeth Trading Estate,Juno Way,,New Cross,E05000449,535882.0001221001,-0.04289481467987184,51.48219844322915,177786.00012210011,SHAPES Lewisham (Deptford and New Cross),Making and manufacturing,11/27/2022
Lewisham,http://www.project2020.co.uk,Project 2020,1.00023E+11,E09000023,4 Creekside,,,New Cross,E05000449,537489.0001221001,-0.020021735818381844,51.47586052253902,177124.00012210011,SHAPES Lewisham (Deptford and New Cross),Making and manufacturing,11/27/2022
Lewisham,http://www.londonbronzecasting.com,London Bronze Casting,1.00024E+11,E09000023,Parkside Business Estate,Rolt Street,,Evelyn,E05000443,536368.0001221001,-0.035875437827599575,51.482638665475065,177848.00012210011,SHAPES Lewisham (Deptford and New Cross),Making and manufacturing,11/27/2022
Lewisham,www.sanushao.com,Sanus Hao Ltd,100000000000,E09000023,26 Carteret Way,Lewisham,,Evelyn,E05000443,536421.000122197,-0.0347960482175408,51.489986427252106,178667.00012149662,SHAPES Lewisham (Deptford and New Cross),Music (office based businesses),11/27/2022
Lewisham,www.musiccomplex.co.uk,The Music Complex,100000000000,E09000023,20 Tanners Hill,Lewisham,,Brockley,E05000439,537150.000122197,-0.02498092112675517,51.47408247218532,176917.00012149662,SHAPES Lewisham (Deptford and New Cross),Music rehearsal studios,11/27/2022
Lewisham,www.musicroomlondon.com,Music Room London,100000000000,E09000023,116-118 New Cross Road,Lewisham,,Telegraph Hill,E05000453,535627.000122197,-0.046859451288595054,51.475375379612935,177020.00012159348,SHAPES Lewisham (Deptford and New Cross),Music rehearsal studios,11/27/2022
Lewisham,www.musicroomlondon.com,The Music Room,100000000000,E09000023,116-118 New Cross Road,Lewisham,,Telegraph Hill,E05000453,535627.000122197,-0.046859451288595054,51.475375379612935,177020.00012159348,SHAPES Lewisham (Deptford and New Cross),Music rehearsal studios,11/27/2022
LEWISHAM,www.thealbany.org.uk,The Albany,100023280903,E09000023,Albany Centre & Theatre Douglas Way,Lewisham,,New Cross,E05000449,537157.0,-0.02475631723780415,51.476947689527975,177236.0,SHAPES Lewisham (Deptford and New Cross),Music venues (all),11/27/2022
Lewisham,,The White Hart,100000000000,E09000023,184 New Cross Road,Lewisham,,Telegraph Hill,E05000453,535752.000122197,-0.04511888852545239,51.473979323192054,176868.00012159348,SHAPES Lewisham (Deptford and New Cross),Music venues (all),11/27/2022
,www.sistermidnightrecords.co.uk,Sister Midnight Records,,,4 Tanner's Hill,,,,,537189.8373322934,-0.024403379778715976,51.47417081602974,176927.90497199446,SHAPES Lewisham (Deptford and New Cross),Music venues (all),11/27/2022
Lewisham,,Bunker Club,100000000000,E09000023,46 Deptford Broadway,Lewisham,,Brockley,E05000439,537242.000122197,-0.023657705717271077,51.47404218434127,176915.00012149662,SHAPES Lewisham (Deptford and New Cross),Music venues (all),11/27/2022
Lewisham,www.royalalbertpub.com,Royal Albert,100000000000,E09000023,460 New Cross Road,Lewisham,,Brockley,E05000439,536999.000122197,-0.02713305677537781,51.47460437235746,176971.00012149662,SHAPES Lewisham (Deptford and New Cross),Music venues (all),11/27/2022
Lewisham,,Five Bells,100000000000,E09000023,155 New Cross Road,Lewisham,,New Cross,E05000449,535748.000122197,-0.04513187662169904,51.47502281078502,176984.00012159348,SHAPES Lewisham (Deptford and New Cross),Music venues (all),11/27/2022
Lewisham,www.theamershamarms.co.uk,The Amersham Arms,100000000000,E09000023,388 New Cross Road,Lewisham,,Brockley,E05000439,536729.000122197,-0.031002875944306424,51.475038176872005,177012.00012149662,SHAPES Lewisham (Deptford and New Cross),Music venues (all),11/27/2022
Lewisham,www.newcrossinn.com,New Cross Inn,100000000000,E09000023,323 New Cross Road,Lewisham,,New Cross,E05000449,536413.000122197,-0.03554097186546133,51.47533915381398,177037.00012149662,SHAPES Lewisham (Deptford and New Cross),Music venues (all),11/27/2022
Lewisham,www.thevenuelondon.com,The Venue,100000000000,E09000023,42827 Clifton Rise,Lewisham,,New Cross,E05000449,536439.000122197,-0.035162538372150484,51.475431742712026,177048.00012149662,SHAPES Lewisham (Deptford and New Cross),Music venues (all),11/27/2022
Lewisham,www.thebirdsnestpub.com,Birds Nest,100000000000,E09000023,32 Deptford Church Street,Lewisham,,New Cross,E05000449,537426.000122197,-0.020938921069262872,51.4756331787729,177097.00012149662,SHAPES Lewisham (Deptford and New Cross),Music venues (all),11/27/2022
Lewisham,,Number3london,100000000000,E09000023,3 Creekside,Lewisham,,New Cross,E05000449,537469.000122197,-0.02029945183016441,51.47609905004914,177150.00012149662,SHAPES Lewisham (Deptford and New Cross),Music venues (all),11/27/2022
Lewisham,www.jobcentredeptford.com,Job Centre,0,E09000023,120 Deptford High St London,,,New Cross,E05000449,537187.000122197,-0.024285320665580843,51.477848121252194,177337.00012149662,SHAPES Lewisham (Deptford and New Cross),Music venues (all),11/27/2022
Lewisham,,The White Hart,100000000000,E09000023,184 New Cross Road,Lewisham,,Telegraph Hill,E05000453,535752.000122197,-0.04511888852545239,51.473979323192054,176868.00012159348,SHAPES Lewisham (Deptford and New Cross),Music venues (grassroots),11/27/2022
,www.sistermidnightrecords.co.uk,Sister Midnight Records,,,4 Tanner's Hill,,,,,537189.8373322934,-0.024403379778715976,51.47417081602974,176927.90497199446,SHAPES Lewisham (Deptford and New Cross),Music venues (grassroots),11/27/2022
Lewisham,www.theamershamarms.co.uk,The Amersham Arms,100000000000,E09000023,388 New Cross Road,Lewisham,,Brockley,E05000439,536729.000122197,-0.031002875944306424,51.475038176872005,177012.00012149662,SHAPES Lewisham (Deptford and New Cross),Music venues (grassroots),11/27/2022
Lewisham,www.newcrossinn.com,New Cross Inn,100000000000,E09000023,323 New Cross Road,Lewisham,,New Cross,E05000449,536413.000122197,-0.03554097186546133,51.47533915381398,177037.00012149662,SHAPES Lewisham (Deptford and New Cross),Music venues (grassroots),11/27/2022
Lewisham,http://www.prangsta.co.uk,Prangsta,1.00023E+11,E09000023,302-304 New Cross Road,,,Brockley,E05000439,536394.0001221001,-0.035834493285191484,51.47487639829598,176985.00012210011,SHAPES Lewisham (Deptford and New Cross),Prop and costume making,11/27/2022
Lewisham,http://smokingapplestheatre.com,Smoking Apples ,1.00023E+11,E09000023,The Old Police Station,114 Amersham Vale ,,New Cross,E05000449,536768.0001221001,-0.03027354658408812,51.4789292036812,177446.00012210011,SHAPES Lewisham (Deptford and New Cross),Prop and costume making,11/27/2022
Lewisham,,White Hart,,E09000023,184 New Cross Road,New Cross,London,Telegraph Hill,E05000453,535737.0001221001,-0.04531900491261859,51.47435140243657,176909.00012210011,SHAPES Lewisham (Deptford and New Cross),Pubs,11/27/2022
Lewisham,,Five Bells,,E09000023,155 New Cross Road,New Cross,London,New Cross,E05000449,535689.0001221001,-0.045958707289539456,51.47555823094883,177042.00012210011,SHAPES Lewisham (Deptford and New Cross),Pubs,11/27/2022
Lewisham,,Rose Pub & Kitchen,,E09000023,272 New Cross Road,New Cross,London,Brockley,E05000439,536242.0001221001,-0.03804477063915601,51.47438278035821,176926.00012210011,SHAPES Lewisham (Deptford and New Cross),Pubs,11/27/2022
Lewisham,,Out of the Brew,,E09000023,306 New Cross Road,New Cross,London,Brockley,E05000439,536394.0001221001,-0.035834493285191484,51.47487639829598,176985.00012210011,SHAPES Lewisham (Deptford and New Cross),Pubs,11/27/2022
Lewisham,,New Cross House,,E09000023,316 New Cross Road,New Cross,London,Brockley,E05000439,536394.0001221001,-0.035834493285191484,51.47487639829598,176985.00012210011,SHAPES Lewisham (Deptford and New Cross),Pubs,11/27/2022
Lewisham,,Marquis of Granby,,E09000023,322 New Cross Road,New Cross,London,Brockley,E05000439,536606.0001221001,-0.03276994846773832,51.475139793077794,177020.00012210011,SHAPES Lewisham (Deptford and New Cross),Pubs,11/27/2022
Lewisham,,New Cross Inn,,E09000023,323 New Cross Road,New Cross,London,New Cross,E05000449,536329.0001221001,-0.03676492882768278,51.47500890223441,176998.00012210011,SHAPES Lewisham (Deptford and New Cross),Pubs,11/27/2022
Lewisham,,Walpole Pub & Kitchen,,E09000023,407 New Cross Road,New Cross,London,New Cross,E05000449,536682.0001221001,-0.03165761147636464,51.47555282088478,177068.00012210011,SHAPES Lewisham (Deptford and New Cross),Pubs,11/27/2022
Lewisham,,Fat Walrus,,E09000023,44 Lewisham Way,New Cross,London,Brockley,E05000439,536609.0001221001,-0.032792902973813196,51.473602250338715,176849.00012210011,SHAPES Lewisham (Deptford and New Cross),Pubs,11/27/2022
Lewisham,,Flower of Kent,,E09000023,135 Lewisham Way,New Cross,London,Brockley,E05000439,536921.0001221001,-0.028401314946238414,51.47124406366188,176595.00012210011,SHAPES Lewisham (Deptford and New Cross),Pubs,11/27/2022
Lewisham,,Ale Bar,,E09000023,443 New Cross Road,New Cross,London,New Cross,E05000449,536895.0001221001,-0.028600311552143338,51.47531257954579,177047.00012210011,SHAPES Lewisham (Deptford and New Cross),Pubs,11/27/2022
Lewisham,,Star & Garter,,E09000023,490 New Cross Road,New Cross,London,Brockley,E05000439,537087.0001221001,-0.02587359850587044,51.474421282787,176953.00012210011,SHAPES Lewisham (Deptford and New Cross),Pubs,11/27/2022
Lewisham,,Royal Albert,,E09000023,460 New Cross Road,New Cross,London,Brockley,E05000439,537087.0001221001,-0.02587359850587044,51.474421282787,176953.00012210011,SHAPES Lewisham (Deptford and New Cross),Pubs,11/27/2022
Lewisham,,Little Crown,,E09000023,495 New Cross Road,New Cross,London,New Cross,E05000449,537112.0001221001,-0.02550022969216245,51.474729775589864,176988.00012210011,SHAPES Lewisham (Deptford and New Cross),Pubs,11/27/2022
Lewisham,,Amersham Arms,,E09000023,388 New Cross Road,New Cross,London,Brockley,E05000439,536879.0001221001,-0.02884801557738722,51.47491202673807,177002.00012210011,SHAPES Lewisham (Deptford and New Cross),Pubs,11/27/2022
Lewisham,,Montague Arms,,E09000023,289 Queens Road,Peckham,London,Telegraph Hill,E05000453,535408.0001221001,-0.050115912202319396,51.47297430595526,176747.00012210011,SHAPES Lewisham (Deptford and New Cross),Pubs,11/27/2022
Lewisham,,White Swan,,E09000023,217 Deptford High Street,Deptford,London,Evelyn,E05000443,537133.0001221001,-0.024958055802707598,51.48027877125126,177606.00012210011,SHAPES Lewisham (Deptford and New Cross),Pubs,11/27/2022
Lewisham,,Stockton,,E09000023,2 Deptford High Street,Deptford,,New Cross,E05000449,537221.0001221001,-0.02391563691975941,51.47507181895903,177029.00012210011,SHAPES Lewisham (Deptford and New Cross),Pubs,11/27/2022
Lewisham,,Taproom SE8,,E09000023,"Unit 2, St Paul's House, 3 Market Yard",Deptford,London,New Cross,E05000449,537152.0001221001,-0.024800316816033816,51.477595980984105,177308.00012210011,SHAPES Lewisham (Deptford and New Cross),Pubs,11/27/2022
Lewisham,,Little Nan's Bar,,E09000023,"Arch 14, Deptford Market Yard",Deptford,London,New Cross,E05000449,537152.0001221001,-0.024800316816033816,51.477595980984105,177308.00012210011,SHAPES Lewisham (Deptford and New Cross),Pubs,11/27/2022
Lewisham,,Job Centre,,E09000023,120 Deptford High Street,Deptford,London,New Cross,E05000449,537162.0001221001,-0.024650568069127306,51.477728363876025,177323.00012210011,SHAPES Lewisham (Deptford and New Cross),Pubs,11/27/2022
Lewisham,,Buster Mantis,,E09000023,3-4 Resolution Way,Deptford,London,New Cross,E05000449,537267.0001221001,-0.023122657234234602,51.47808933958497,177366.00012210011,SHAPES Lewisham (Deptford and New Cross),Pubs,11/27/2022
Lewisham,,Villages Brewery Taproom,,E09000023,Units 21-22 Resolution Way,Deptford,London,New Cross,E05000449,537267.0001221001,-0.023122657234234602,51.47808933958497,177366.00012210011,SHAPES Lewisham (Deptford and New Cross),Pubs,11/27/2022
Lewisham,,Full Nelson,,E09000023,47 Deptford Broadway,Deptford,London,Brockley,E05000439,537217.0001221001,-0.02401399003435167,51.47412913400917,176924.00012210011,SHAPES Lewisham (Deptford and New Cross),Pubs,11/27/2022
Lewisham,,Royal Standard,,E09000023,86 Tanners Hill,Deptford,St Johns,Brockley,E05000439,537107.0001221001,-0.025623031380062188,51.47355366398842,176857.00012210011,SHAPES Lewisham (Deptford and New Cross),Pubs,11/27/2022
Lewisham,,Royal George,,E09000023,85 Tanners Hill,Deptford,St Johns,Brockley,E05000439,536992.0001221001,-0.027382313480635873,51.47116396476052,176588.00012210011,SHAPES Lewisham (Deptford and New Cross),Pubs,11/27/2022
Lewisham,,Birds Nest,,E09000023,32 Deptford Church Street,Deptford,London,New Cross,E05000449,537426.0001221001,-0.020938921070422185,51.475633178778345,177097.00012210011,SHAPES Lewisham (Deptford and New Cross),Pubs,11/27/2022
Lewisham,,Black Horse,,E09000023,195 Evelyn Street,Deptford,London,Evelyn,E05000443,536594.0001221001,-0.0325109701467887,51.48517244189298,178136.00012210011,SHAPES Lewisham (Deptford and New Cross),Pubs,11/27/2022
Lewisham,https://aldworthjamesandbond.co.uk/contact,Aldworth James & Bond,100000000000,E09000023,Unit 305 Parkside Business Estate,34-37 Rolt Street,,Evelyn,E05000443,536368.0001221001,-0.035875437827599575,51.482638665475065,177848.00012210011,SHAPES Lewisham (Deptford and New Cross),Set and exhibition building,11/27/2022
Lewisham,https://www.flints.co.uk/,Flints Theatrical Chandlers,100000000000,E09000023,Unit 9 Deptford Trading Estate,Blackhorse Road,,Evelyn,E05000443,536171.0001221001,-0.038659767867416095,51.4838814428135,177981.00012210011,SHAPES Lewisham (Deptford and New Cross),Set and exhibition building,11/27/2022
Lewisham,http://illusiondc.co,Illusion Design & Construct,200000000000,E09000023,Unit 1A Elizabeth Industrial Estate,Juno Way,,New Cross,E05000449,535882.0001221001,-0.04289481467987184,51.48219844322915,177786.00012210011,SHAPES Lewisham (Deptford and New Cross),Set and exhibition building,11/27/2022
Lewisham,,Matter ,10093394512,E09000023,Studio 1Unit 13,Elizabeth Industrial Estate,Juno Way,New Cross,E05000449,535882.0001221001,-0.04289481467987184,51.48219844322915,177786.00012210011,SHAPES Lewisham (Deptford and New Cross),Set and exhibition building,11/27/2022
Lewisham,http://themediaservicescompany.com,The Media Services,100000000000,E09000023,Unit 15 Deptford Trading Estate, Blackhorse Road,,Evelyn,E05000443,536310.0001221001,-0.03663616408556276,51.484378200711575,178040.00012210011,SHAPES Lewisham (Deptford and New Cross),Set and exhibition building,11/27/2022
Lewisham,http://www.charlottegrierson.co.uk,Charlotte Grierson,100023280408,E09000023,Studio 306,Cockpit Arts,18-22 Creekside,New Cross,E05000449,537549.0001221001,-0.019060092353894366,51.478110700225876,177376.00012210011,SHAPES Lewisham (Deptford and New Cross),Textile design,11/27/2022
Lewisham,http://www.elizabethashdown.co.uk,Elizabeth Ashdown ,100023280408,E09000023,Studio 213,Cockpit Arts,18-22 Creekside,New Cross,E05000449,537549.0001221001,-0.019060092353894366,51.478110700225876,177376.00012210011,SHAPES Lewisham (Deptford and New Cross),Textile design,11/27/2022
Lewisham,https://www.fflurowen.com,Fflur Owen,100023280408,E09000023,Studio 307,Cockpit Arts,18-22 Creekside,New Cross,E05000449,537549.0001221001,-0.019060092353894366,51.478110700225876,177376.00012210011,SHAPES Lewisham (Deptford and New Cross),Textile design,11/27/2022
Lewisham,,Georgia Bosson,100023680112,E09000023,Studio 3 Unit 10,Elizabeth Industrial Estate,Juno Way,New Cross,E05000449,535882.0001221001,-0.04289481467987184,51.48219844322915,177786.00012210011,SHAPES Lewisham (Deptford and New Cross),Textile design,11/27/2022
Lewisham,http://www.insleyandnash.co.uk/,Insley & Nash,100023281359,E09000023,Unit 56 ,Parkside Business Estate,,Evelyn,E05000443,536354.0001221001,-0.03607193369523618,51.482758875570944,177861.00012210011,SHAPES Lewisham (Deptford and New Cross),Textile design,11/27/2022
Lewisham,http://www.lornasyson.co.uk,Lorna Syson,100023280408,E09000023,Studio 307,Cockpit Arts,18-22 Creekside,New Cross,E05000449,537549.0001221001,-0.019060092353894366,51.478110700225876,177376.00012210011,SHAPES Lewisham (Deptford and New Cross),Textile design,11/27/2022
Lewisham,http://oliviajholland.co.uk,Olivia Holland,100023280408,E09000023,Studio 209,Cockpit Arts,18-22 Creekside,New Cross,E05000449,537549.0001221001,-0.019060092353894366,51.478110700225876,177376.00012210011,SHAPES Lewisham (Deptford and New Cross),Textile design,11/27/2022
Lewisham,https://www.instagram.com/plusminu5/?hl=en,Poppy Fuller Abbott,100023280408,E09000023,Studio 213,Cockpit Arts,18-22 Creekside,New Cross,E05000449,537549.0001221001,-0.019060092353894366,51.478110700225876,177376.00012210011,SHAPES Lewisham (Deptford and New Cross),Textile design,11/27/2022
Lewisham,https://www.sophiegraney.co.uk/,Sophie Graney,100023280408,E09000023,Studio 213,Cockpit Arts,18-22 Creekside,New Cross,E05000449,537549.0001221001,-0.019060092353894366,51.478110700225876,177376.00012210011,SHAPES Lewisham (Deptford and New Cross),Textile design,11/27/2022
Lewisham,http://vickycowin.co.uk,Vicky Cowin,100023280408,E09000023,Studio 213,Cockpit Arts,18-22 Creekside,New Cross,E05000449,537549.0001221001,-0.019060092353894366,51.478110700225876,177376.00012210011,SHAPES Lewisham (Deptford and New Cross),Textile design,11/27/2022
Lewisham,http://www.whelansweaving.com,Whelan Weaving,100023280408,E09000023,Studio 214,Cockpit Arts,18-22Creekside,New Cross,E05000449,537549.0001221001,-0.019060092353894366,51.478110700225876,177376.00012210011,SHAPES Lewisham (Deptford and New Cross),Textile design,11/27/2022
Lewisham,http://www.woven-air.com/home2.htm,Woven Air,100023280408,E09000023,Cockpit Arts,18-22Creekside,,New Cross,E05000449,537549.0001221001,-0.019060092353894366,51.478110700225876,177376.00012210011,SHAPES Lewisham (Deptford and New Cross),Textile design,11/27/2022
Greenwich,www.selladoor.com,Sell A Door,10023231588,E09000011,1 Creek Road,,,Greenwich West,E05000222,536970.9855489796,-0.02562619339872058,51.48148020088161,177792.58657225058,SHAPES Lewisham (Deptford and New Cross),Theatre rehearsal studio,11/27/2022
Lewisham,http://www.thealbany.org.uk/hireus/36/Room-Hire,The Albany,100023280749,E09000023,Douglas Way,Deptford,,New Cross,E05000449,536857.9999720026,-0.027409246524924713,51.47787709615518,177388.66395419365,SHAPES Lewisham (Deptford and New Cross),Theatre rehearsal studio,11/27/2022
Lewisham,NA,George Wood Theatre ,100023000000,E09000023,Goldsmith's College, University of London,NA,New Cross,E05000449,536149.2429007317,-0.03771247917133249,51.47568861221421,177126.135651234,SHAPES Lewisham (Deptford and New Cross),Theatres,11/27/2022
Lewisham,http://www.thelondontheatre.com/,London Theatre,10091838199,E09000023,443 New Cross Rd, New Cross,NA,New Cross,E05000449,536557.27100796,-0.031807110401728365,51.47634389435151,177209.99005259672,SHAPES Lewisham (Deptford and New Cross),Theatres,11/27/2022
Lewisham,https://www.trinitylaban.ac.uk/whats-on/our-venues/laban-theatre,Laban Theatre,100024000000,E09000023,Laban Building, 30 Creekside,NA,New Cross,E05000449,537252.0744281212,-0.02168121540413649,51.47906871834874,177531.87311555585,SHAPES Lewisham (Deptford and New Cross),Theatres,11/27/2022
Lewisham,https://www.thealbany.org.uk/,The Albany,100024000000,E09000023,Douglas Way,NA,NA,New Cross,E05000449,536744.2583966389,-0.029025428427221285,51.47839272901002,177442.97015710623,SHAPES Lewisham (Deptford and New Cross),Theatres,11/27/2022
