borough_name,website,site_name,os_addressbase_uprn,borough_code,address1,address2,address3,ward_2018_name,ward_2018_code,easting,longitude,latitude,northing,Creative Enterprise Zones,Cultural Venue Type,runtime
Haringey,https://www.pjrcreativebuilding.co.uk/,,100000000000,E09000014,718 Seven Sisters Rd,,,St. Ann's,E05000277,533043.761794575,-0.07803631833449517,51.5804164002186,188695.38105321152,Tottenham,Artists workspaces,11/27/2022
Haringey,www.themillcoproject.co.uk,Carvall Warehouse ,10003978049,E09000014,Bernard Works,23 Bernard Road ,,Tottenham Green,E05000280,533708.5766675373,-0.06836678133465894,51.58210093470421,188900.3030877746,Tottenham,Artists workspaces,11/27/2022
Haringey,https://www.pjrcreativebuilding.co.uk/,,10093591482,E09000014,Unit 7,2 Norman Rd,,Tottenham Green,E05000280,533704.5750726637,-0.06840582028451359,51.582542214585104,188949.29279123322,Tottenham,Artists workspaces,11/27/2022
Haringey,http://bonesandpearl.moonfruit.com/contact/4589196098,,10090481197,E09000014,60-68 Markfield Road,,,Tottenham Green,E05000280,534011.4960865323,-0.0639363863477529,51.58343970635787,189057.25770057767,Tottenham,Artists workspaces,11/27/2022
Haringey,www.euroart.co.uk,Euro Art Studios,200002797261,E09000014,"Units 4-6 Gaunson House, Markfield Road",,,Tottenham Green,E05000280,534037.4886422339,-0.06354760941091742,51.58375702015042,189093.2488796324,Tottenham,Artists workspaces,11/27/2022
Haringey,www.themillcoproject.co.uk,Gaunson House ,200000000000,E09000014,"Unit 3, Markfield Road ",,,Tottenham Green,E05000280,534037.488595345,-0.06354722770264615,51.583766006437486,189094.24865471513,Tottenham,Artists workspaces,11/27/2022
Haringey,https://www.berniegrantcentre.co.uk/,Bernie Grant Arts Centre ,10003985252,E09000014,Town Hall Approach Rd ,Tottenham Green,,Tottenham Green,E05000280,533366.6441101524,-0.07307594316383177,51.587475025787676,189489.18429012678,Tottenham,Arts centres,11/27/2022
Haringey,,Park Lane Community Centre,100023163085,E09000014,46 Park Lane,London Borough Of Haringey,NA,Northumberland Park,E05000276,534111.0001221001,-0.06333936391477268,51.60164021905645,191029.00012210011,Tottenham,Community centres,11/27/2022
Haringey,,Lord Morrison Hall,100023166637,E09000014,Scales Road,London Borough Of Haringey,NA,Tottenham Hale,E05000281,533952.0001221001,-0.06609953795338999,51.59072263011235,189810.00012210011,Tottenham,Community centres,11/27/2022
Haringey,,Whitehall & Tenterden Community Centre,200002798089,E09000014,Whitehall Street,London Borough Of Haringey,NA,Northumberland Park,E05000276,533775.0001221001,-0.06812438189030243,51.603229997613795,191197.00012210011,Tottenham,Community centres,11/27/2022
Haringey,https://www.haringey-irish.com/hirefacilities.html,Haringey Irish Cultural and Community Centre,100023552672,E09000014,Pretoria Road,London Borough Of Haringey,NA,Northumberland Park,E05000276,533644.0001221001,-0.06985416209773387,51.60705372044925,191619.00012210011,Tottenham,Community centres,11/27/2022
Haringey,https://www.haringey.gov.uk/libraries-sport-and-leisure/culture-and-entertainment/venues-hire/northumberland-park-resource-centre,London Borough of Haringey Neighbourhood Resource,100023163044,E09000014,179 Park Lane,London Borough Of Haringey,NA,Northumberland Park,E05000276,534468.0001221001,-0.05815346144896439,51.602345953146056,191117.00012210011,Tottenham,Community centres,11/27/2022
Haringey,http://www.papertankcollective.com/?COLLCC=2285603521,Papertank Collective,100023166838,E09000014,Papertank Collective,Unit 12 Millmead Industrial Estate,Millmead Road,Tottenham Hale,E05000281,534668.0001221001,-0.055704366874882935,51.59206176505373,189978.00012210011,Tottenham,Creative co-working desk space,11/27/2022
Haringey,http://ten87studios.com,Ten87 Studios,10022939575,E09000014,Ten87 Studios,39a Markfield Road,,,,534165.0001221001,-0.06336880748883929,51.582619381070664,188914.00012210011,Tottenham,Creative workspaces,11/27/2022
Haringey,www.themillcoproject.co.uk,The Mill Co. Project,10003979581,E09000014,Carvall Warehouse,Bernard Works,23 Bernard Road,,,533971.0001221001,-0.06619337104272702,51.582054405729274,188846.00012210011,Tottenham,Creative workspaces,11/27/2022
Haringey,https://www.berniegrantcentre.co.uk/hire/workspace/,Bernie Grant Centre,10003985252,E09000014,Bernie Grant Arts Centre,Bernie Grant Arts Centre,Town Hall Approach Road,,,533590.0001221001,-0.07148518781875277,51.58697102898695,189383.00012210011,Tottenham,Creative workspaces,11/27/2022
Haringey,www.themillcoproject.co.uk,The Mill Co. Project,10022940861,E09000014,The Cannon Factory,16 Ashley Road,,,,534357.0001221001,-0.060285531202125237,51.58993416452718,189733.00012210011,Tottenham,Creative workspaces,11/27/2022
Haringey,www.themillcoproject.co.uk,The Mill Co. Project,10093592040,E09000014,Gaunson House,"Unit 3, Markfield Road",,,,534262.0001221001,-0.061941201224010194,51.583261332167346,188988.00012210011,Tottenham,Creative workspaces,11/27/2022
Haringey,http://www.berniegrantcentre.co.uk,Bernie Grant Arts Centre,10003985252,E09000014,Town Hall Approach,,,Tottenham Green,E05000280,533366.6441101524,-0.07307594316383177,51.587475025787676,189489.18429012678,Tottenham,Dance performance venues,11/27/2022
Haringey,http://www.ballystudios.co.uk,Mill Mead Rehearsal Studios,10003979046,E09000014,16 Millmead Business Centre,,,Tottenham Hale,E05000281,534522.338368583,-0.056199156816526326,51.591908454284194,190013.00162209087,Tottenham,Dance rehearsal studios,11/27/2022
Haringey,http://www.theannexspace.com/tohire/,The Annex,10090478351,E09000014,7 Fountayne Road,,,Tottenham Green,E05000280,534110.4725880993,-0.062495764035325134,51.58371266793974,189090.24748665217,Tottenham,Dance rehearsal studios,11/27/2022
Haringey,http://the-room.org.uk/contact/,The Room,100021191820,E09000014,33 Holcombe Road,,,Tottenham Hale,E05000281,533909.4844072876,-0.06501159439450442,51.592791633785374,190095.0140476547,Tottenham,Dance rehearsal studios,11/27/2022
Haringey,http://www.berniegrantcentre.co.uk,Bernie Grant Arts Centre,10003985252,E09000014,Town Hall Approach,,,Tottenham Green,E05000280,533366.6441101524,-0.07307594316383177,51.587475025787676,189489.18429012678,Tottenham,Dance rehearsal studios,11/27/2022
Haringey,http://www.lindseytaitdesign.com/,Lindsey Tait,10003982936,E09000014,Unit 10,5 Fountayne Road,,Tottenham Green,E05000280,534115.4697396068,-0.06240797919262977,51.58407990997171,189131.23765376094,Tottenham,Fashion and design,11/27/2022
Haringey,http://www.msamplelondon.com/,Msample Ltd,10003976574,E09000014,Unit U15 Highcross Centre,15-16 Fountayne Road,,Tottenham Green,E05000280,534110.4639376601,-0.062413243043223716,51.58565367575575,189306.19549319864,Tottenham,Fashion and design,11/27/2022
Haringey,,M/G Jewellery Ltd,10022939575,E09000014,"Unit 5, C. City, 39 - 41",Markfield Road,,Tottenham Green,E05000280,534165.0001221001,-0.06336880748883929,51.582619381070664,188914.00012210011,Tottenham,Jewellery design,11/27/2022
Haringey,,Tanospitfire&Co Ltd,100023164907,E09000014,5b Gloucester Road,,,Bruce Grove,E05000268,532977.0001221001,-0.08026586130982308,51.588616930541136,189550.00012210011,Tottenham,Jewellery design,11/27/2022
Haringey,,Markfield Park,,E09000014,,,,Tottenham Green,E05000280,534086.3140269897,-0.06287470623267272,51.58300451913227,189010.82189535868,Tottenham,Legal street art walls,11/27/2022
Haringey,,The Cause (Regular LGBTQ+ Programming),,,Ashley House,,,,,534114.0866755542,-0.062176540655198426,51.58998341564052,189787.99996935524,Tottenham,LGBT+ night time venues,11/27/2022
Haringey,,Marcus Garvey Library,100023153172,E09000014,Philip Lane,,,Tottenham Green,E05000280,533522.0001221001,-0.07243694735977974,51.58767916930498,189460.00012210011,Tottenham,Libraries,11/27/2022
Haringey,,Coombes Croft Library,100023165934,E09000014,High Road,,,Northumberland Park,E05000276,533874.0001221001,-0.06669786693967332,51.60315254497201,191191.00012210011,Tottenham,Libraries,11/27/2022
Haringey,https://www.downlanestudios.com,Down Lane Studios,100023000000,E09000014,Down Lane Studio,Ashley House,Ashley House,Tottenham Hale,E05000281,534117.4432018708,-0.06212922482458336,51.5899563629862,189785.07911684562,Tottenham,Makerspaces,11/27/2022
Haringey,http://www.londondarkroom.com,North London Darkroom,10003976077,E09000014,North London Darkroom,Unit 3d,Milmead Industrial Centre,Tottenham Hale,E05000281,534412.3660406925,-0.05780374008943574,51.59152140035551,189967.0191264134,Tottenham,Makerspaces,11/27/2022
Haringey,https://www.thefashionbox.co.uk/contact,The Fashion Box,100023000000,E09000014,The Fashion Box,Unit 4,718-722 Seven Sister Road,St. Ann's,E05000277,533043.761794575,-0.07803631833449517,51.5804164002186,188695.38105321152,Tottenham,Makerspaces,11/27/2022
Haringey,,Guerrero Records Ltd,100000000000,E09000014,4 Jansons Road,,,Tottenham Green,E05000280,533330.000122197,-0.07517625707225958,51.58845261160655,189541.00012159348,Tottenham,Music (office based businesses),11/27/2022
Haringey,,The Cave Studios,,,Unit 58 Millmead Industrial Estate,Mill Mead Road,,,,534772.8808560967,-0.054204144166729015,51.591730799294446,189943.9647416994,Tottenham,Music recording studios,11/27/2022
HARINGEY,www.ballystudios.co.uk,Bally Studios,100023166840,E09000014,Unit 16 Mill Mead Industrial Centre,Mill Mead Road,,Tottenham Hale,E05000281,534747.0,-0.05459214946353765,51.59139579493727,189906.0,Tottenham,Music rehearsal studios,11/27/2022
Haringey,www.t-chances.com,Tchances Arts & Music Centre,100000000000,E09000014,399 High Road,,,Bruce Grove,E05000268,533734.000122197,-0.06930591542811948,51.58933646485325,189650.00012159348,Tottenham,Music venues (all),11/27/2022
Haringey,,Five Miles,,E09000014,39b Markfield Road,South Tottenham,London,Tottenham Green,E05000280,534181.0001221001,-0.0631318786813678,51.582759367051516,188930.00012210011,Tottenham,Pubs,11/27/2022
Haringey,,Mannions Prince Arthur,,E09000014,158 Broad Lane,South Tottenham,London,Tottenham Green,E05000280,534207.0001221001,-0.06269448769424732,51.58421809423599,189093.00012210011,Tottenham,Pubs,11/27/2022
Haringey,,Fountain,,E09000014,125 West Green Road,South Tottenham,London,Tottenham Green,E05000280,533235.0001221001,-0.07671582693367551,51.584475737169974,189096.00012210011,Tottenham,Pubs,11/27/2022
Haringey,,True Craft,,E09000014,68 West Green Road,London,South Tottenham,Tottenham Green,E05000280,533444.0001221001,-0.07372539876895805,51.58384210334165,189031.00012210011,Tottenham,Pubs,11/27/2022
Haringey,,No.8,,E09000014,618 Seven Sisters Road,South Tottenham,London,Seven Sisters,E05000278,532999.0001221001,-0.08040385783817786,51.57780897055355,188348.00012210011,Tottenham,Pubs,11/27/2022
Haringey,,Dutch House,,E09000014,148 High Road,South Tottenham,London,Seven Sisters,E05000278,533660.0001221001,-0.07079054832437892,51.579512961780466,188555.00012210011,Tottenham,Pubs,11/27/2022
Haringey,,No.8,,E09000014,724 High Road,Tottenham,London,Northumberland Park,E05000276,533946.0001221001,-0.06572176729789507,51.60165253046008,191026.00012210011,Tottenham,Pubs,11/27/2022
Haringey,,Coach & Horses,,E09000014,862 High Road,Tottenham,London,Northumberland Park,E05000276,533898.0001221001,-0.06620941884212088,51.60649008417328,191563.00012210011,Tottenham,Pubs,11/27/2022
Haringey,,Bill Nicholson,,E09000014,102 Northumberland Park,Tottenham,London,Northumberland Park,E05000276,534349.0001221001,-0.05975400554916386,51.60511545050902,191422.00012210011,Tottenham,Pubs,11/27/2022
Haringey,,Ship,,E09000014,499 High Road,Tottenham,London,Bruce Grove,E05000268,533788.0001221001,-0.06839563932468508,51.59241525818235,189994.00012210011,Tottenham,Pubs,11/27/2022
Haringey,,Elbow Room,,E09000014,503-505 High Road,Tottenham,London,Bruce Grove,E05000268,533788.0001221001,-0.06839563932468508,51.59241525818235,189994.00012210011,Tottenham,Pubs,11/27/2022
Haringey,,Bricklayers Arms,,E09000014,803-805 High Road,Tottenham,London,Northumberland Park,E05000276,533854.0001221001,-0.06688190689110489,51.60561979919515,191465.00012210011,Tottenham,Pubs,11/27/2022
Haringey,,Beehive,,E09000014,Stoneleigh Road,London,Tottenham,Tottenham Hale,E05000281,533877.0001221001,-0.06706872398164516,51.593400683649634,190106.00012210011,Tottenham,Pubs,11/27/2022
Haringey,,Volunteer,,E09000014,131 Chesnut Road,Tottenham,London,Tottenham Hale,E05000281,534172.0001221001,-0.06295932358403321,51.58987041038928,189721.00012210011,Tottenham,Pubs,11/27/2022
Haringey,,High Cross,,E09000014,350 High Road,London,Tottenham,Tottenham Hale,E05000281,533818.0001221001,-0.06811455647386448,51.58883120600519,189596.00012210011,Tottenham,Pubs,11/27/2022
Haringey,,Ferry Boat Inn,,E09000014,Ferry Lane,London,Tottenham,Tottenham Hale,E05000281,534840.0001221001,-0.05343127903710395,51.58714058262011,189435.00012210011,Tottenham,Pubs,11/27/2022
Haringey,,Brewheadz,,E09000014,"Unit 16a, Rosebery Industrial Park",Tottenham,London,Tottenham Hale,E05000281,534636.0001221001,-0.056024091390832496,51.59539467215591,190348.00012210011,Tottenham,Pubs,11/27/2022
Haringey,,Bluecoats,,E09000014,614 High Road,London,Tottenham,Tottenham Hale,E05000281,533894.0001221001,-0.06673106142940582,51.595571554577276,190348.00012210011,Tottenham,Pubs,11/27/2022
Haringey,,Victoria,,E09000014,34 Scotland Green,Tottenham,London,Tottenham Hale,E05000281,533925.0001221001,-0.06625509850374421,51.596238226678956,190423.00012210011,Tottenham,Pubs,11/27/2022
Haringey,,Two Brewers,,E09000014,42 Scotland Green,Tottenham,London,Tottenham Hale,E05000281,533925.0001221001,-0.06625509850374421,51.596238226678956,190423.00012210011,Tottenham,Pubs,11/27/2022
Haringey,http://www.setbuilduk.com,Setbuild Limited,100000000000,E09000014,Unit 4D Triumph Trading Estate,Tariff Road,,Northumberland Park,E05000276,534475.0001221001,-0.05788559442624592,51.60625370335427,191552.00012210011,Tottenham,Set and exhibition building,11/27/2022
Haringey,http://www.csjf.co.uk/,Cannon Street Jersey Fabrics,10022940861,E09000014,16 Ashley Road,,,Tottenham Hale,E05000281,534357.0001221001,-0.060285531202125237,51.58993416452718,189733.00012210011,Tottenham,Textile design,11/27/2022
Haringey,https://www.theatren16.co.uk/,Theatre N16 ,10003979036,E09000014,5 Ashley Road,NA,NA,Tottenham Hale,E05000281,534072.680415642,-0.06274564864095836,51.59065970940856,189862.14495268028,Tottenham,Theatres,11/27/2022
Haringey,https://www.berniegrantcentre.co.uk/,Bernie Grant Arts Centre,10091817474,E09000014,Town Hall Approach Rd, Tottenham Green,NA,Tottenham Green,E05000280,533300.2656060165,-0.07400867718298278,51.58808292873386,189555.06886799302,Tottenham,Theatres,11/27/2022
